[{"OBJECT_NAME":"STARLINK-5222","OBJECT_ID":"2022-136T","EPOCH":"2026-03-09T22:26:24.439776","MEAN_MOTION":15.08838992,"ECCENTRICITY":0.00013964,"INCLINATION":53.2192,"RA_OF_ASC_NODE":342.8335,"ARG_OF_PERICENTER":93.3296,"MEAN_ANOMALY":266.7856,"EPHEMERIS_TYPE":0,"CLASSIFICATION_TYPE":"U","NORAD_CAT_ID":54068,"ELEMENT_SET_NO":999,"REV_AT_EPOCH":18688,"BSTAR":6.9685583e-5,"MEAN_MOTION_DOT":8.21e-6,"MEAN_MOTION_DDOT":0},{"OBJECT_NAME":"OBJECT B","OBJECT_ID":"2025-226B","EPOCH":"2026-03-09T23:02:31.139232","MEAN_MOTION":15.09715314,"ECCENTRICITY":0.00204156,"INCLINATION":97.6443,"RA_OF_ASC_NODE":147.8366,"ARG_OF_PERICENTER":114.3969,"MEAN_ANOMALY":245.9393,"EPHEMERIS_TYPE":0,"CLASSIFICATION_TYPE":"U","NORAD_CAT_ID":65939,"ELEMENT_SET_NO":999,"REV_AT_EPOCH":2260,"BSTAR":0.00038297064,"MEAN_MOTION_DOT":6.14e-5,"MEAN_MOTION_DDOT":0}]
